start=new Date('2023-04-17T00:00:00.000Z').valueOf();
sats=[{"EPHEMERIS_TYPE":"0","TIME_SYSTEM":"UTC","ARG_OF_PERICENTER":"111.5483","OBJECT_ID":"2020-073AZ","PERIOD":"95.594","MEAN_ANOMALY":"248.5634","EPOCH":"2023-04-16T20:16:06.517632","ECCENTRICITY":"0.00012030","PERIAPSIS":"546.482","OBJECT_TYPE":"PAYLOAD","RCS_SIZE":"LARGE","ELEMENT_SET_NO":"999","CENTER_NAME":"EARTH","FILE":"3888799","INCLINATION":"53.0538","MEAN_MOTION_DDOT":"0.0000000000000","TLE_LINE2":"2 46717  53.0538 310.4677 0001203 111.5483 248.5634 15.06366800137680","TLE_LINE1":"1 46717U 20073AZ  23106.84451988  .00020949  00000-0  14224-2 0  9995","SEMIMAJOR_AXIS":"6925.450","BSTAR":"0.00142240000000","GP_ID":"230195486","CLASSIFICATION_TYPE":"U","LAUNCH_DATE":"2020-10-18","MEAN_MOTION_DOT":"0.00020949","APOAPSIS":"548.148","SITE":"AFETR","MEAN_MOTION":"15.06366800","DECAY_DATE":null,"COUNTRY_CODE":"US","OBJECT_NAME":"STARLINK-1820","MEAN_ELEMENT_THEORY":"SGP4","REV_AT_EPOCH":"13768","NORAD_CAT_ID":"46717","REF_FRAME":"TEME","RA_OF_ASC_NODE":"310.4677"},{"SITE":"AFETR","APOAPSIS":"548.245","MEAN_MOTION":"15.06331815","LAUNCH_DATE":"2020-10-18","CLASSIFICATION_TYPE":"U","MEAN_MOTION_DOT":"0.00013841","NORAD_CAT_ID":"46718","REV_AT_EPOCH":"13748","MEAN_ELEMENT_THEORY":"SGP4","RA_OF_ASC_NODE":"325.2786","REF_FRAME":"TEME","DECAY_DATE":null,"OBJECT_NAME":"STARLINK-1821","COUNTRY_CODE":"US","ELEMENT_SET_NO":"999","RCS_SIZE":"LARGE","FILE":"3888799","CENTER_NAME":"EARTH","PERIAPSIS":"546.600","OBJECT_TYPE":"PAYLOAD","MEAN_MOTION_DDOT":"0.0000000000000","INCLINATION":"53.0545","ARG_OF_PERICENTER":"76.7517","TIME_SYSTEM":"UTC","EPHEMERIS_TYPE":"0","MEAN_ANOMALY":"283.3604","PERIOD":"95.596","EPOCH":"2023-04-16T21:13:45.067296","ECCENTRICITY":"0.00011870","OBJECT_ID":"2020-073BA","BSTAR":"0.00094799000000","SEMIMAJOR_AXIS":"6925.558","GP_ID":"230194775","TLE_LINE1":"1 46718U 20073BA  23106.88454939  .00013841  00000-0  94799-3 0  9998","TLE_LINE2":"2 46718  53.0545 325.2786 0001187  76.7517 283.3604 15.06331815137485"},{"TLE_LINE1":"1 46719U 20073BB  23106.86846454  .00020124  00000-0  13681-2 0  9996","TLE_LINE2":"2 46719  53.0536 290.3599 0000788 108.6642 251.4433 15.06344307137970","GP_ID":"230195022","BSTAR":"0.00136810000000","SEMIMAJOR_AXIS":"6925.519","MEAN_ANOMALY":"251.4433","PERIOD":"95.596","ECCENTRICITY":"0.00007880","EPOCH":"2023-04-16T20:50:35.336256","OBJECT_ID":"2020-073BB","ARG_OF_PERICENTER":"108.6642","TIME_SYSTEM":"UTC","EPHEMERIS_TYPE":"0","INCLINATION":"53.0536","MEAN_MOTION_DDOT":"0.0000000000000","CENTER_NAME":"EARTH","FILE":"3888799","ELEMENT_SET_NO":"999","RCS_SIZE":"LARGE","OBJECT_TYPE":"PAYLOAD","PERIAPSIS":"546.839","OBJECT_NAME":"STARLINK-1822","COUNTRY_CODE":"US","DECAY_DATE":null,"RA_OF_ASC_NODE":"290.3599","REF_FRAME":"TEME","NORAD_CAT_ID":"46719","REV_AT_EPOCH":"13797","MEAN_ELEMENT_THEORY":"SGP4","MEAN_MOTION_DOT":"0.00020124","LAUNCH_DATE":"2020-10-18","CLASSIFICATION_TYPE":"U","MEAN_MOTION":"15.06344307","SITE":"AFETR","APOAPSIS":"547.930"},{"TLE_LINE2":"2 46722  53.0542 325.1685 0000943  77.1297 282.9797 15.06371742137484","TLE_LINE1":"1 46722U 20073BE  23106.91134372  .00024873  00000-0  16841-2 0  9991","SEMIMAJOR_AXIS":"6925.435","BSTAR":"0.00168410000000","GP_ID":"230195276","EPHEMERIS_TYPE":"0","ARG_OF_PERICENTER":"77.1297","TIME_SYSTEM":"UTC","OBJECT_ID":"2020-073BE","MEAN_ANOMALY":"282.9797","PERIOD":"95.594","EPOCH":"2023-04-16T21:52:20.097408","ECCENTRICITY":"0.00009430","OBJECT_TYPE":"PAYLOAD","PERIAPSIS":"546.647","FILE":"3888799","CENTER_NAME":"EARTH","RCS_SIZE":"LARGE","ELEMENT_SET_NO":"999","INCLINATION":"53.0542","MEAN_MOTION_DDOT":"0.0000000000000","DECAY_DATE":null,"COUNTRY_CODE":"US","OBJECT_NAME":"STARLINK-1825","MEAN_ELEMENT_THEORY":"SGP4","REV_AT_EPOCH":"13748","NORAD_CAT_ID":"46722","REF_FRAME":"TEME","RA_OF_ASC_NODE":"325.1685","CLASSIFICATION_TYPE":"U","LAUNCH_DATE":"2020-10-18","MEAN_MOTION_DOT":"0.00024873","APOAPSIS":"547.953","SITE":"AFETR","MEAN_MOTION":"15.06371742"},{"TIME_SYSTEM":"UTC","ARG_OF_PERICENTER":"115.4988","EPHEMERIS_TYPE":"0","PERIOD":"95.594","MEAN_ANOMALY":"244.6093","ECCENTRICITY":"0.00008870","EPOCH":"2023-04-16T20:53:56.565312","OBJECT_ID":"2020-073BF","ELEMENT_SET_NO":"999","RCS_SIZE":"LARGE","FILE":"3888799","CENTER_NAME":"EARTH","PERIAPSIS":"546.666","OBJECT_TYPE":"PAYLOAD","INCLINATION":"53.0526","MEAN_MOTION_DDOT":"0.0000000000000","TLE_LINE1":"1 46723U 20073BF  23106.87079358  .00026750  00000-0  18090-2 0  9993","TLE_LINE2":"2 46723  53.0526 285.3504 0000887 115.4988 244.6093 15.06378276138040","BSTAR":"0.00180900000000","SEMIMAJOR_AXIS":"6925.415","GP_ID":"230195986","LAUNCH_DATE":"2020-10-18","CLASSIFICATION_TYPE":"U","MEAN_MOTION_DOT":"0.00026750","SITE":"AFETR","APOAPSIS":"547.894","MEAN_MOTION":"15.06378276","DECAY_DATE":null,"COUNTRY_CODE":"US","OBJECT_NAME":"STARLINK-1826","NORAD_CAT_ID":"46723","REV_AT_EPOCH":"13804","MEAN_ELEMENT_THEORY":"SGP4","RA_OF_ASC_NODE":"285.3504","REF_FRAME":"TEME"},{"APOAPSIS":"547.714","SITE":"AFETR","MEAN_MOTION":"15.06397078","CLASSIFICATION_TYPE":"U","LAUNCH_DATE":"2020-10-18","MEAN_MOTION_DOT":"0.00029036","MEAN_ELEMENT_THEORY":"SGP4","REV_AT_EPOCH":"13748","NORAD_CAT_ID":"46725","REF_FRAME":"TEME","RA_OF_ASC_NODE":"325.3331","DECAY_DATE":null,"COUNTRY_CODE":"US","OBJECT_NAME":"STARLINK-1828","PERIAPSIS":"546.731","OBJECT_TYPE":"PAYLOAD","ELEMENT_SET_NO":"999","RCS_SIZE":"LARGE","CENTER_NAME":"EARTH","FILE":"3888799","INCLINATION":"53.0543","MEAN_MOTION_DDOT":"0.0000000000000","EPHEMERIS_TYPE":"0","TIME_SYSTEM":"UTC","ARG_OF_PERICENTER":"105.6215","OBJECT_ID":"2020-073BH","PERIOD":"95.592","MEAN_ANOMALY":"254.4852","EPOCH":"2023-04-16T20:59:15.129024","ECCENTRICITY":"0.00007100","SEMIMAJOR_AXIS":"6925.358","BSTAR":"0.00196030000000","GP_ID":"230194275","TLE_LINE2":"2 46725  53.0543 325.3331 0000710 105.6215 254.4852 15.06397078137483","TLE_LINE1":"1 46725U 20073BH  23106.87448066  .00029036  00000-0  19603-2 0  9992"},{"MEAN_MOTION_DDOT":"0.0000000000000","INCLINATION":"53.0537","ELEMENT_SET_NO":"999","RCS_SIZE":"LARGE","FILE":"3888799","CENTER_NAME":"EARTH","OBJECT_TYPE":"PAYLOAD","PERIAPSIS":"546.514","MEAN_ANOMALY":"290.2123","PERIOD":"95.594","EPOCH":"2023-04-16T19:58:50.445984","ECCENTRICITY":"0.00011230","OBJECT_ID":"2020-073BJ","ARG_OF_PERICENTER":"69.8987","TIME_SYSTEM":"UTC","EPHEMERIS_TYPE":"0","GP_ID":"230194522","BSTAR":"0.00119360000000","SEMIMAJOR_AXIS":"6925.427","TLE_LINE1":"1 46726U 20073BJ  23106.83252831  .00017530  00000-0  11936-2 0  9999","TLE_LINE2":"2 46726  53.0537 310.5130 0001123  69.8987 290.2123 15.06374557137684","MEAN_MOTION":"15.06374557","SITE":"AFETR","APOAPSIS":"548.069","MEAN_MOTION_DOT":"0.00017530","LAUNCH_DATE":"2020-10-18","CLASSIFICATION_TYPE":"U","RA_OF_ASC_NODE":"310.5130","REF_FRAME":"TEME","REV_AT_EPOCH":"13768","NORAD_CAT_ID":"46726","MEAN_ELEMENT_THEORY":"SGP4","COUNTRY_CODE":"US","OBJECT_NAME":"STARLINK-1829","DECAY_DATE":null},{"FILE":"3888799","CENTER_NAME":"EARTH","ELEMENT_SET_NO":"999","RCS_SIZE":"LARGE","PERIAPSIS":"546.753","OBJECT_TYPE":"PAYLOAD","MEAN_MOTION_DDOT":"0.0000000000000","INCLINATION":"53.0528","TIME_SYSTEM":"UTC","ARG_OF_PERICENTER":"110.9041","EPHEMERIS_TYPE":"0","MEAN_ANOMALY":"249.2045","PERIOD":"95.596","EPOCH":"2023-04-16T20:32:40.753536","ECCENTRICITY":"0.00009120","OBJECT_ID":"2020-073BK","BSTAR":"0.00136070000000","SEMIMAJOR_AXIS":"6925.519","GP_ID":"230195775","TLE_LINE1":"1 46727U 20073BK  23106.85602724  .00020014  00000-0  13607-2 0  9990","TLE_LINE2":"2 46727  53.0528 285.4152 0000912 110.9041 249.2045 15.06344267138046","SITE":"AFETR","APOAPSIS":"548.016","MEAN_MOTION":"15.06344267","LAUNCH_DATE":"2020-10-18","CLASSIFICATION_TYPE":"U","MEAN_MOTION_DOT":"0.00020014","REV_AT_EPOCH":"13804","NORAD_CAT_ID":"46727","MEAN_ELEMENT_THEORY":"SGP4","RA_OF_ASC_NODE":"285.4152","REF_FRAME":"TEME","DECAY_DATE":null,"OBJECT_NAME":"STARLINK-1830","COUNTRY_CODE":"US"},{"MEAN_MOTION":"15.06502541","APOAPSIS":"547.727","SITE":"AFETR","MEAN_MOTION_DOT":"0.00045332","CLASSIFICATION_TYPE":"U","LAUNCH_DATE":"2020-10-24","REF_FRAME":"TEME","RA_OF_ASC_NODE":"38.2727","MEAN_ELEMENT_THEORY":"SGP4","REV_AT_EPOCH":"13706","NORAD_CAT_ID":"46740","COUNTRY_CODE":"US","OBJECT_NAME":"STARLINK-1848","DECAY_DATE":null,"MEAN_MOTION_DDOT":"0.0000000000000","INCLINATION":"53.0545","OBJECT_TYPE":"PAYLOAD","PERIAPSIS":"546.072","FILE":"3888626","CENTER_NAME":"EARTH","ELEMENT_SET_NO":"999","RCS_SIZE":"LARGE","OBJECT_ID":"2020-074B","PERIOD":"95.586","ECCENTRICITY":"0.00011950","MEAN_ANOMALY":"262.3290","EPOCH":"2023-04-16T05:15:43.803936","EPHEMERIS_TYPE":"0","TIME_SYSTEM":"UTC","ARG_OF_PERICENTER":"97.7835","GP_ID":"230164278","SEMIMAJOR_AXIS":"6925.034","BSTAR":"0.00303430000000","TLE_LINE2":"2 46740  53.0545  38.2727 0001195  97.7835 262.3290 15.06502541137069","TLE_LINE1":"1 46740U 20074B   23106.21925699  .00045332  00000-0  30343-2 0  9991"},{"SEMIMAJOR_AXIS":"6925.370","BSTAR":"-0.00046608000000","GP_ID":"230194276","TLE_LINE2":"2 46741  53.0544  30.8146 0001679 115.1062 245.0102 15.06393009137221","TLE_LINE1":"1 46741U 20074C   23106.76708796 -.00007216  00000-0 -46608-3 0  9992","PERIAPSIS":"546.072","OBJECT_TYPE":"PAYLOAD","ELEMENT_SET_NO":"999","RCS_SIZE":"LARGE","CENTER_NAME":"EARTH","FILE":"3888799","MEAN_MOTION_DDOT":"0.0000000000000","INCLINATION":"53.0544","EPHEMERIS_TYPE":"0","ARG_OF_PERICENTER":"115.1062","TIME_SYSTEM":"UTC","OBJECT_ID":"2020-074C","PERIOD":"95.593","MEAN_ANOMALY":"245.0102","ECCENTRICITY":"0.00016790","EPOCH":"2023-04-16T18:24:36.399744","MEAN_ELEMENT_THEORY":"SGP4","NORAD_CAT_ID":"46741","REV_AT_EPOCH":"13722","REF_FRAME":"TEME","RA_OF_ASC_NODE":"30.8146","DECAY_DATE":null,"OBJECT_NAME":"STARLINK-1865","COUNTRY_CODE":"US","APOAPSIS":"548.398","SITE":"AFETR","MEAN_MOTION":"15.06393009","CLASSIFICATION_TYPE":"U","LAUNCH_DATE":"2020-10-24","MEAN_MOTION_DOT":"-0.00007216"}];
